COSMOS 2588             
1 64095U 25109A   26068.81179522  .00009169  00000+0  32611-3 0  9998
2 64095  72.9704  73.5401 0005019 308.6780  51.3966 15.29122656 44425
STARLINK-34236          
1 64743U 25144V   26068.57151855  .00020612  00000+0  70619-3 0  9995
2 64743  53.1600 181.5955 0001155  78.1403 281.9727 15.30196896 39691
